{"type": "FeatureCollection", "features": [ {"type": "Feature", "properties": {"norad_id": 65077, "name": "CREW DRAGON 11", "group": "stations", "lat": 10.671944518318485, "lon": -12.062914008816364, "alt_km": 416.0787441221837, "timestamp": "2025-12-05T20:43:00.875869+00:00", "meta": {"OBJECT_NAME": "CREW DRAGON 11", "OBJECT_ID": "2025-166A", "EPOCH": "2025-12-05T06:04:12.236160", "MEAN_MOTION": 15.49328184, "ECCENTRICITY": 0.00035858, "INCLINATION": 51.6297, "RA_OF_ASC_NODE": 179.5463, "ARG_OF_PERICENTER": 206.2517, "MEAN_ANOMALY": 153.8291, "EPHEMERIS_TYPE": 0, "CLASSIFICATION_TYPE": "U", "NORAD_CAT_ID": 65077, "ELEMENT_SET_NO": 999, "REV_AT_EPOCH": 214, "BSTAR": 0.0002719745, "MEAN_MOTION_DOT": 0.00014736, "MEAN_MOTION_DDOT": 0}, "tle": {"line1": "1 65077U 25166A   25339.25291940  .00014736  00000+0  27197-3 0  9998", "line2": "2 65077  51.6297 179.5463 0003585 206.2517 153.8291 15.49328184  2147"}}, "geometry": {"type": "Point", "coordinates": [-12.062914008816364, 10.671944518318485]}}, {"type": "Feature", "properties": {"norad_id": 65304, "name": "DRAGON CRS-33", "group": "stations", "lat": 10.67194401713407, "lon": -12.062913593531896, "alt_km": 416.0787441782795, "timestamp": "2025-12-05T20:43:00.875879+00:00", "meta": {"OBJECT_NAME": "DRAGON CRS-33", "OBJECT_ID": "2025-186A", "EPOCH": "2025-12-05T06:04:12.236160", "MEAN_MOTION": 15.49328184, "ECCENTRICITY": 0.00035858, "INCLINATION": 51.6297, "RA_OF_ASC_NODE": 179.5463, "ARG_OF_PERICENTER": 206.2517, "MEAN_ANOMALY": 153.8291, "EPHEMERIS_TYPE": 0, "CLASSIFICATION_TYPE": "U", "NORAD_CAT_ID": 65304, "ELEMENT_SET_NO": 999, "REV_AT_EPOCH": 11, "BSTAR": 0.0002719745, "MEAN_MOTION_DOT": 0.00014736, "MEAN_MOTION_DDOT": 0}, "tle": {"line1": "1 65304U 25186A   25339.25291940  .00014736  00000+0  27197-3 0  9993", "line2": "2 65304  51.6297 179.5463 0003585 206.2517 153.8291 15.49328184   115"}}, "geometry": {"type": "Point", "coordinates": [-12.062913593531896, 10.67194401713407]}}, {"type": "Feature", "properties": {"norad_id": 65586, "name": "PROGRESS-MS 32", "group": "stations", "lat": 10.671943515948387, "lon": -12.062913178246381, "alt_km": 416.0787442343726, "timestamp": "2025-12-05T20:43:00.875889+00:00", "meta": {"OBJECT_NAME": "PROGRESS-MS 32", "OBJECT_ID": "2025-204A", "EPOCH": "2025-12-05T06:04:12.236160", "MEAN_MOTION": 15.49328184, "ECCENTRICITY": 0.00035858, "INCLINATION": 51.6297, "RA_OF_ASC_NODE": 179.5463, "ARG_OF_PERICENTER": 206.2517, "MEAN_ANOMALY": 153.8291, "EPHEMERIS_TYPE": 0, "CLASSIFICATION_TYPE": "U", "NORAD_CAT_ID": 65586, "ELEMENT_SET_NO": 999, "REV_AT_EPOCH": 27, "BSTAR": 0.0002719745, "MEAN_MOTION_DOT": 0.00014736, "MEAN_MOTION_DDOT": 0}, "tle": {"line1": "1 65586U 25204A   25339.25291940  .00014736  00000+0  27197-3 0  9996", "line2": "2 65586  51.6297 179.5463 0003585 206.2517 153.8291 15.49328184   274"}}, "geometry": {"type": "Point", "coordinates": [-12.062913178246381, 10.671943515948387]}}, {"type": "Feature", "properties": {"norad_id": 65616, "name": "CYGNUS NG-23", "group": "stations", "lat": 10.6719429646459, "lon": -12.062912721433776, "alt_km": 416.07874429607546, "timestamp": "2025-12-05T20:43:00.875900+00:00", "meta": {"OBJECT_NAME": "CYGNUS NG-23", "OBJECT_ID": "2025-208A", "EPOCH": "2025-12-05T06:04:12.236160", "MEAN_MOTION": 15.49328184, "ECCENTRICITY": 0.00035858, "INCLINATION": 51.6297, "RA_OF_ASC_NODE": 179.5463, "ARG_OF_PERICENTER": 206.2517, "MEAN_ANOMALY": 153.8291, "EPHEMERIS_TYPE": 0, "CLASSIFICATION_TYPE": "U", "NORAD_CAT_ID": 65616, "ELEMENT_SET_NO": 999, "REV_AT_EPOCH": 22, "BSTAR": 0.0002719745, "MEAN_MOTION_DOT": 0.00014736, "MEAN_MOTION_DDOT": 0}, "tle": {"line1": "1 65616U 25208A   25339.25291940  .00014736  00000+0  27197-3 0  9994", "line2": "2 65616  51.6297 179.5463 0003585 206.2517 153.8291 15.49328184   223"}}, "geometry": {"type": "Point", "coordinates": [-12.062912721433776, 10.6719429646459]}}, {"type": "Feature", "properties": {"norad_id": 65729, "name": "DRAGONFLY", "group": "stations", "lat": -13.532497319193228, "lon": 159.90420122582447, "alt_km": 364.89252049669267, "timestamp": "2025-12-05T20:43:00.875910+00:00", "meta": {"OBJECT_NAME": "DRAGONFLY", "OBJECT_ID": "1998-067XH", "EPOCH": "2025-12-04T18:48:18.796032", "MEAN_MOTION": 15.68817694, "ECCENTRICITY": 0.00065682, "INCLINATION": 51.624, "RA_OF_ASC_NODE": 176.4076, "ARG_OF_PERICENTER": 226.1978, "MEAN_ANOMALY": 133.8476, "EPHEMERIS_TYPE": 0, "CLASSIFICATION_TYPE": "U", "NORAD_CAT_ID": 65729, "ELEMENT_SET_NO": 999, "REV_AT_EPOCH": 1191, "BSTAR": 0.0018217218, "MEAN_MOTION_DOT": 0.00218353, "MEAN_MOTION_DDOT": 0}, "tle": {"line1": "1 65729U 98067XH  25338.78355088  .00218353  00000+0  18217-2 0  9996", "line2": "2 65729  51.6240 176.4076 0006568 226.1978 133.8476 15.68817694 11919"}}, "geometry": {"type": "Point", "coordinates": [159.90420122582447, -13.532497319193228]}}, {"type": "Feature", "properties": {"norad_id": 65731, "name": "1998-067XK", "group": "stations", "lat": 26.229845005750906, "lon": -30.904962132194946, "alt_km": 370.5776865964117, "timestamp": "2025-12-05T20:43:00.875923+00:00", "meta": {"OBJECT_NAME": "1998-067XK", "OBJECT_ID": "1998-067XK", "EPOCH": "2025-12-05T06:17:44.288160", "MEAN_MOTION": 15.63965392, "ECCENTRICITY": 0.00057136, "INCLINATION": 51.6276, "RA_OF_ASC_NODE": 175.1175, "ARG_OF_PERICENTER": 201.161, "MEAN_ANOMALY": 158.9149, "EPHEMERIS_TYPE": 0, "CLASSIFICATION_TYPE": "U", "NORAD_CAT_ID": 65731, "ELEMENT_SET_NO": 999, "REV_AT_EPOCH": 1197, "BSTAR": 0.0012222442, "MEAN_MOTION_DOT": 0.00118787, "MEAN_MOTION_DDOT": 0}, "tle": {"line1": "1 65731U 98067XK  25339.26231815  .00118787  00000+0  12222-2 0  9994", "line2": "2 65731  51.6276 175.1175 0005713 201.1610 158.9149 15.63965392 11979"}}, "geometry": {"type": "Point", "coordinates": [-30.904962132194946, 26.229845005750906]}}, {"type": "Feature", "properties": {"norad_id": 65732, "name": "RSP-03", "group": "stations", "lat": 38.65762038854725, "lon": -149.1484192029582, "alt_km": 367.53228182703424, "timestamp": "2025-12-05T20:43:00.875935+00:00", "meta": {"OBJECT_NAME": "RSP-03", "OBJECT_ID": "1998-067XL", "EPOCH": "2025-12-05T06:42:43.045632", "MEAN_MOTION": 15.66336847, "ECCENTRICITY": 0.0006353, "INCLINATION": 51.625, "RA_OF_ASC_NODE": 174.4773, "ARG_OF_PERICENTER": 204.5134, "MEAN_ANOMALY": 155.556, "EPHEMERIS_TYPE": 0, "CLASSIFICATION_TYPE": "U", "NORAD_CAT_ID": 65732, "ELEMENT_SET_NO": 999, "REV_AT_EPOCH": 1199, "BSTAR": 0.0014259537, "MEAN_MOTION_DOT": 0.0015313, "MEAN_MOTION_DDOT": 0}, "tle": {"line1": "1 65732U 98067XL  25339.27966488  .00153130  00000+0  14260-2 0  9992", "line2": "2 65732  51.6250 174.4773 0006353 204.5134 155.5560 15.66336847 11999"}}, "geometry": {"type": "Point", "coordinates": [-149.1484192029582, 38.65762038854725]}}, {"type": "Feature", "properties": {"norad_id": 65733, "name": "GHS-01", "group": "stations", "lat": -10.35522219737838, "lon": -1.2065899297150775, "alt_km": 352.91430407131065, "timestamp": "2025-12-05T20:43:00.875945+00:00", "meta": {"OBJECT_NAME": "GHS-01", "OBJECT_ID": "1998-067XM", "EPOCH": "2025-12-04T19:28:30.588096", "MEAN_MOTION": 15.70973864, "ECCENTRICITY": 0.00069075, "INCLINATION": 51.627, "RA_OF_ASC_NODE": 175.8507, "ARG_OF_PERICENTER": 226.7602, "MEAN_ANOMALY": 133.282, "EPHEMERIS_TYPE": 0, "CLASSIFICATION_TYPE": "U", "NORAD_CAT_ID": 65733, "ELEMENT_SET_NO": 999, "REV_AT_EPOCH": 1193, "BSTAR": 0.0020184818, "MEAN_MOTION_DOT": 0.00266248, "MEAN_MOTION_DDOT": 0}, "tle": {"line1": "1 65733U 98067XM  25338.81146514  .00266248  00000+0  20185-2 0  9990", "line2": "2 65733  51.6270 175.8507 0006907 226.7602 133.2820 15.70973864 11930"}}, "geometry": {"type": "Point", "coordinates": [-1.2065899297150775, -10.35522219737838]}}, {"type": "Feature", "properties": {"norad_id": 65941, "name": "YOTSUBA-KULOVER", "group": "stations", "lat": 40.7890171106897, "lon": -142.36078606077544, "alt_km": 387.82559853433486, "timestamp": "2025-12-05T20:43:00.875958+00:00", "meta": {"OBJECT_NAME": "YOTSUBA-KULOVER", "OBJECT_ID": "1998-067XN", "EPOCH": "2025-12-04T13:41:28.106016", "MEAN_MOTION": 15.58052031, "ECCENTRICITY": 0.00020554, "INCLINATION": 51.6276, "RA_OF_ASC_NODE": 180.9943, "ARG_OF_PERICENTER": 178.3938, "MEAN_ANOMALY": 181.7061, "EPHEMERIS_TYPE": 0, "CLASSIFICATION_TYPE": "U", "NORAD_CAT_ID": 65941, "ELEMENT_SET_NO": 999, "REV_AT_EPOCH": 858, "BSTAR": 0.0013676634, "MEAN_MOTION_DOT": 0.00105594, "MEAN_MOTION_DDOT": 0}, "tle": {"line1": "1 65941U 98067XN  25338.57046419  .00105594  00000+0  13677-2 0  9991", "line2": "2 65941  51.6276 180.9943 0002055 178.3938 181.7061 15.58052031  8584"}}, "geometry": {"type": "Point", "coordinates": [-142.36078606077544, 40.7890171106897]}}, {"type": "Feature", "properties": {"norad_id": 65942, "name": "BOTAN", "group": "stations", "lat": -38.01979864266483, "lon": 135.70035614675285, "alt_km": 390.0082052777607, "timestamp": "2025-12-05T20:43:00.875969+00:00", "meta": {"OBJECT_NAME": "BOTAN", "OBJECT_ID": "1998-067XP", "EPOCH": "2025-12-04T15:44:42.289728", "MEAN_MOTION": 15.60784931, "ECCENTRICITY": 0.00042645, "INCLINATION": 51.6268, "RA_OF_ASC_NODE": 180.0664, "ARG_OF_PERICENTER": 180.2775, "MEAN_ANOMALY": 179.8217, "EPHEMERIS_TYPE": 0, "CLASSIFICATION_TYPE": "U", "NORAD_CAT_ID": 65942, "ELEMENT_SET_NO": 999, "REV_AT_EPOCH": 860, "BSTAR": 0.0017279415, "MEAN_MOTION_DOT": 0.00149041, "MEAN_MOTION_DDOT": 0}, "tle": {"line1": "1 65942U 98067XP  25338.65604502  .00149041  00000+0  17279-2 0  9991", "line2": "2 65942  51.6268 180.0664 0004264 180.2775 179.8217 15.60784931  8600"}}, "geometry": {"type": "Point", "coordinates": [135.70035614675285, -38.01979864266483]}}]}